P/2017 S5 (ATLAS),e,11.8503,252.3848,99.8340,3.168894,0.1747200,0.31386986,182.5264,06/07.0/2020,2000,g 14.0,4.0
# From MPC109591
C/2017 S6 (Catalina),h,02/26.6289/2018,152.8676,131.0450,134.7927,1.000681,1.542181,2000,12.5,4.0
# From MPC114599
C/2017 S7 (Lemmon),h,05/25.8493/2017,124.2325,262.7910,187.6205,1.001100,7.609107,2000,7.0,4.0
# From MPC114599
P/2017 S8 (PANSTARRS),e,29.8215,191.7097,254.7222,2.778595,0.2127973,0.39252089,183.2179,06/07.0/2020,2000,g 16.0,4.0
# From MPC107050
P/2017 S9 (PANSTARRS),e,14.1436,146.2191,237.7263,3.154103,0.1759504,0.30493032,184.7122,06/07.0/2020,2000,g 17.0,4.0
# From MPC114600
C/2017 T1 (Heinze),h,02/21.4247/2018,96.8359,102.3148,96.9108,1.000005,0.581502,2000,14.5,4.0
# From MPC119996
C/2017 T2 (PANSTARRS),e,57.2306,64.3777,92.9957,3847,0.0000041,0.99958019,0.0000,05/04.9536/2020,2000,g  5.0,4.0
# From MPC114600
C/2017 T3 (ATLAS),e,88.0349,230.0698,246.8333,1360,0.0000197,0.99939346,0.0000,07/19.0221/2018,2000,g 10.0,4.0
# From MPC115882
P/2017 TW13 (Lemmon),e,44.8478,322.2885,120.0448,7.148738,0.0515656,0.70937107,36.9809,06/07.0/2020,2000,g 15.0,2.0
# From MPC114600
C/2017 U2 (Fuls),e,95.3929,149.7115,147.7687,4366,0.0000034,0.99846470,0.0000,08/28.2768/2017,2000,g  9.0,4.0
# From MPC114600
P/2017 U3 (PANSTARRS),e,15.9131,165.1090,297.1154,4.931830,0.0899895,0.09893330,37.3849,06/07.0/2020,2000,g 11.0,4.0
# From MPC114600
C/2017 U4 (PANSTARRS),h,09/24.1407/2018,158.2217,245.9495,159.0763,1.003353,7.722522,2000,7.0,4.0
# From MPC114600
C/2017 U5 (PANSTARRS),e,18.9680,163.0865,262.0632,16.87630,0.0142164,0.74383130,12.8170,06/07.0/2020,2000,g 12.0,4.0
# From MPC118841
A/2017 U7,h,09/13.3887/2019,142.6175,276.2403,326.2161,1.003023,6.419773,2000,8.3,2.0
# From MPC114600
C/2017 W2 (Leonard),e,98.1989,312.8374,169.1004,13.68238,0.0194743,0.71093794,18.4694,06/07.0/2020,2000,g 11.0,4.0
# From MPC114601
P/2017 W3 (Gibbs),e,18.1819,210.4028,327.5877,7.843521,0.0448681,0.50850324,37.1720,06/07.0/2020,2000,g 10.5,4.0
# From MPC115883
C/2017 X1 (PANSTARRS),e,31.3037,251.1298,283.2804,31.46103,0.0055853,0.85163296,4.0351,06/07.0/2020,2000,g 10.0,4.0
# From MPC117069
C/2017 Y1 (PANSTARRS),e,55.2654,307.5285,134.3570,1956,0.0000114,0.99810060,0.0000,08/31.1442/2017,2000,g 11.5,4.0
# From MPC118841
C/2017 Y2 (PANSTARRS),h,11/04.4871/2020,128.4271,65.9786,147.8439,1.000764,4.632232,2000,15.0,4.0
# From MPC111770
P/2017 Y3 (Leonard),e,27.5680,153.8579,67.5790,9.851711,0.0318740,0.87033267,26.9969,06/07.0/2020,2000,g 16.5,4.0
# From MPC114601
C/2018 A1 (PANSTARRS),e,53.5945,336.6387,96.3123,25.11997,0.0078284,0.90377612,7.5209,06/07.0/2020,2000,g 12.5,4.0
# From MPC119996
C/2018 A3 (ATLAS),e,139.5522,194.2927,86.4105,495.2405,0.0000894,0.99338494,0.0000,01/12.7567/2019,2000,g  8.5,4.0
# From MPC114601
C/2018 A4 (PANSTARRS),e,3.1482,97.6348,356.0800,12.21920,0.0230749,0.80345039,17.3166,06/07.0/2020,2000,g 14.0,4.0
# From MPC109147
P/2018 A5 (PANSTARRS),e,23.5779,87.8307,359.6162,5.638268,0.0736182,0.52222246,72.7177,06/07.0/2020,2000,g 15.0,4.0
# From MPC119996
C/2018 A6 (Gibbs),e,76.9583,340.3832,264.5491,15.34783,0.0163921,0.80334949,5.3876,06/07.0/2020,2000,g  9.0,4.0
# From MPC118841
C/2018 B1 (Lemmon),h,03/29.8299/2018,162.4203,133.1902,68.3136,1.001678,5.115253,2000,9.0,4.0
# From MPC114601
P/2018 C1 (Lemmon-Read),e,5.1327,270.3933,235.5192,5.649685,0.0733952,0.53481115,60.9620,06/07.0/2020,2000,g 13.5,4.0
# From MPC114601
C/2018 C2 (Lemmon),h,06/01.9640/2018,34.4582,91.1383,134.1146,1.000992,1.957064,2000,13.0,4.0
# From MPEC 2020-AA5
C/2018 DO4 (Lemmon),e,160.4741,251.1317,175.9612,25.78054,0.0075295,0.90667798,2.2109,06/07.0/2020,2000,g 11.0,4.0
# From MPC114602
C/2018 E1 (ATLAS),e,72.5065,146.8540,299.4341,54.03680,0.0024812,0.94995835,1.9397,06/07.0/2020,2000,g 10.5,4.0
# From MPC114602
C/2018 E2 (Barros),e,97.7293,67.2003,277.4795,3697,0.0000044,0.99893941,0.0000,12/23.9433/2017,2000,g 10.5,4.0
# From MPC114602
C/2018 EN4 (NEOWISE),e,81.5996,136.1512,35.0118,18.29722,0.0125929,0.92080228,9.1998,06/07.0/2020,2000,g 15.0,4.0
# From MPC114602
C/2018 EF9 (Lemmon),e,84.6593,172.5738,72.6205,589.6363,0.0000688,0.99735924,0.0000,05/23.0161/2018,2000,g 18.0,2.0
# From MPC115883
C/2018 F1 (Grauer),e,46.0755,177.2763,71.6394,298.8832,0.0001907,0.98998394,0.0000,12/13.9907/2018,2000,g 11.5,4.0
# From MPC110084
C/2018 F3 (Johnson),p,08/15.2314/2017,105.5348,293.0113,2.483172,173.0311,2000,13.0,4.0
# From MPC119996
C/2018 F4 (PANSTARRS),h,12/04.1350/2019,78.0977,26.5092,263.2209,1.001504,3.439935,2000,11.9,2.0
# From MPC114602
P/2018 H2 (PANSTARRS),e,7.3881,68.4298,120.0237,4.396198,0.1069272,0.53987080,92.6106,06/07.0/2020,2000,g 16.6,2.0
# From MPC114602
C/2018 K1 (Weiland),e,164.1961,260.0179,325.0172,29.86807,0.0060380,0.93704584,4.7837,06/07.0/2020,2000,g 14.9,4.0
# From MPC118094
C/2018 KJ3 (Lemmon),e,136.7093,91.5942,217.6387,753.2485,0.0000477,0.99518234,0.0000,09/09.5644/2019,2000,g 12.2,2.0
# From MPC114602
P/2018 L1 (PANSTARRS),e,10.5946,268.6273,17.9470,3.649519,0.1413678,0.48303407,80.9163,06/07.0/2020,2000,g 15.0,4.0
# From MPC118841
C/2018 L2 (ATLAS),e,67.4115,243.0226,56.2576,254.7662,0.0002424,0.99327921,0.0000,12/02.6507/2018,2000,g 10.0,4.0
# From MPC114603
P/2018 L4 (PANSTARRS),e,26.6236,145.1674,140.5161,4.938445,0.0898088,0.66031504,60.7183,06/07.0/2020,2000,g 17.5,4.0
# From MPC119996
P/2018 L5 (Leonard),e,2.2086,219.1477,93.7417,3.627075,0.1426820,0.36480533,109.0252,06/07.0/2020,2000,g 14.5,4.0
# From MPC117070
C/2018 M1 (Catalina),e,37.2774,339.4293,14.1467,21.31145,0.0100181,0.93887520,6.9912,06/07.0/2020,2000,g 15.5,4.0
# From MPC112393
C/2018 N1 (NEOWISE),e,159.4456,292.4409,354.5865,336.1977,0.0001599,0.99610759,0.0000,08/01.9058/2018,2000,g 15.5,4.0
# From MPC119996
C/2018 N2 (ASASSN),h,11/10.9597/2019,77.5288,25.2553,24.3970,1.000106,3.124639,2000,6.0,4.0
# From MPC114603
C/2018 O1 (ATLAS),e,154.0424,87.6265,162.5342,27.81469,0.0067188,0.94393727,4.3368,06/07.0/2020,2000,g 17.0,4.0
# From MPC114603
P/2018 P3 (PANSTARRS),e,8.9083,59.1988,305.8638,3.006720,0.1890447,0.41620551,114.6475,06/07.0/2020,2000,g 14.5,4.0
# From MPC114603
P/2018 P4 (PANSTARRS),e,23.1065,353.0890,8.1637,6.667353,0.0572498,0.45012723,33.0557,06/07.0/2020,2000,g 12.0,4.0
# From MPC118094
C/2018 P5 (PANSTARRS),e,7.2550,216.2455,131.6758,12.77839,0.0215769,0.64186751,10.0628,06/07.0/2020,2000,g 11.0,4.0
# From MPC118841
C/2018 R3 (Lemmon),e,69.7229,324.6305,112.8622,1802,0.0000129,0.99928385,0.0000,06/07.1932/2019,2000,g  9.5,4.0
# From MPC112393
C/2018 R4 (Fuls),e,11.6838,298.4342,345.2377,321.2443,0.0001712,0.99467199,0.0000,03/03.6968/2018,2000,g 14.0,4.0
# From MPC114603
C/2018 R5 (Lemmon),e,103.7493,171.1370,178.0304,22.79589,0.0090556,0.84111611,4.6545,06/07.0/2020,2000,g 11.5,4.0
# From MPC119996
C/2018 U1 (Lemmon),h,11/02.7783/2021,108.3015,75.4771,180.4136,1.000604,4.994185,2000,5.0,4.0
# From MPC114604
C/2018 V1 (Machholz-Fujikawa-Iwamoto),h,12/03.4703/2018,144.0536,128.8783,88.8333,1.000408,0.385713,2000,12.0,4.0
# From MPC115884
C/2018 V2 (ATLAS),e,159.1364,356.8958,318.8399,25.47446,0.0076656,0.90272052,4.2776,06/07.0/2020,2000,g 15.0,4.0
# From MPC114604
P/2018 VN2 (Leonard),e,18.2471,226.5357,138.7237,4.064955,0.1202598,0.47821874,88.1014,06/07.0/2020,2000,g 15.0,4.0
# From MPC117070
A/2018 V3,e,164.9778,308.6581,3.4951,120.5338,0.0007448,0.98888694,0.0000,09/08.6792/2019,2000,g 15.7,2.0
# From MPC114604
C/2018 V4 (Africano),e,69.0037,78.3781,359.9672,209.4751,0.0003251,0.98473176,0.0000,03/01.5168/2019,2000,g 12.5,4.0
# From MPC114604
P/2018 V5 (Trujillo-Sheppard),e,10.5827,171.2968,260.7321,8.954770,0.0367809,0.47446439,22.5459,06/07.0/2020,2000,g 12.5,4.0
# From MPC115884
C/2018 W1 (Catalina),e,83.2578,233.5912,251.2575,21.77603,0.0096992,0.93752212,3.8038,06/07.0/2020,2000,g 15.7,2.0
# From MPC119996
C/2018 W2 (Africano),h,09/05.7177/2019,116.6169,181.8537,157.9758,1.000616,1.454724,2000,9.5,4.0
# From MPC119996
C/2018 X2 (Fitzsimmons),e,23.0695,340.8288,162.0594,150.8332,0.0005321,0.98590354,0.0000,07/08.5276/2019,2000,g 12.0,4.0
# From MPC114604
C/2018 X3 (PANSTARRS),e,43.3690,78.9205,359.7851,12.39012,0.0225991,0.78225639,11.8503,06/07.0/2020,2000,g 14.5,4.0
# From MPC118842
C/2018 Y1 (Iwamoto),e,160.4018,147.5026,358.0481,143.7912,0.0005716,0.99105512,0.0000,02/07.0411/2019,2000,g 11.5,4.0
# From MPC114605
P/2018 Y2 (Africano),e,11.6829,297.2678,162.4190,7.467100,0.0483032,0.47874402,25.2102,06/07.0/2020,2000,g 11.5,4.0
# From MPC114605
P/2019 A1 (PANSTARRS),e,13.7442,312.3027,150.8240,5.125568,0.0849359,0.56845797,51.3972,06/07.0/2020,2000,g 16.0,4.0
# From MPC114605
P/2019 A2 (ATLAS),e,14.8599,139.4650,324.1441,5.726321,0.0719268,0.38144090,40.5704,06/07.0/2020,2000,g 10.5,4.0
# From MPC114605
P/2019 A3 (PANSTARRS),e,15.3650,31.3155,325.4739,3.147304,0.1765209,0.26530179,119.1628,06/07.0/2020,2000,g 16.0,4.0
# From MPC114605
P/2019 A4 (PANSTARRS),e,13.3206,119.3004,341.6497,2.613032,0.2333389,0.08921262,128.4719,06/07.0/2020,2000,g 15.0,4.0
# From MPC118842
C/2019 A5 (PANSTARRS),e,67.5520,146.6224,356.0147,21.61781,0.0098059,0.70747046,3.5681,06/07.0/2020,2000,g  9.5,4.0
# From MPC114605
P/2019 A6 (Lemmon-PANSTARRS),e,33.2290,280.2750,156.2466,5.365780,0.0792966,0.63890499,51.3714,06/07.0/2020,2000,g 16.0,4.0
# From MPC114605
P/2019 A7 (PANSTARRS),e,17.7743,280.5253,119.3162,3.186238,0.1732953,0.16093637,152.7992,06/07.0/2020,2000,g 13.5,4.0
# From MPC115884
P/2019 A8 (PANSTARRS),e,2.9923,127.6983,21.9705,3.365732,0.1596191,0.44277622,102.3021,06/07.0/2020,2000,g 16.0,4.0
# From MPC118842
C/2019 A9 (PANSTARRS),e,84.3281,278.3724,237.8800,39.53706,0.0039646,0.96388476,1.2543,06/07.0/2020,2000,g 15.0,4.0
# From MPC114606
C/2019 B1 (Africano),e,123.3630,290.4372,174.8636,149.8154,0.0005375,0.98934131,0.0000,03/19.8783/2019,2000,g 16.0,4.0
# From MPC115885
P/2019 B2 (Groeller),e,16.8261,176.4289,358.8601,3.856238,0.1301542,0.37309223,47.4513,06/07.0/2020,2000,g 14.5,4.0
# From MPC115885
